{"type": "FeatureCollection", "features": [ {"type": "Feature", "properties": {"norad_id": 35829, "name": "COSMOS 2251 DEB", "group": "cosmos-2251-debris", "lat": -50.94307181801396, "lon": -47.20530353706005, "alt_km": 646.245242247126, "timestamp": "2025-12-05T22:40:48.946924+00:00", "meta": {"OBJECT_NAME": "COSMOS 2251 DEB", "OBJECT_ID": "1993-036ATB", "EPOCH": "2025-12-04T01:42:07.569216", "MEAN_MOTION": 14.75878061, "ECCENTRICITY": 0.00074898, "INCLINATION": 74.0233, "RA_OF_ASC_NODE": 115.7881, "ARG_OF_PERICENTER": 173.9555, "MEAN_ANOMALY": 186.1711, "EPHEMERIS_TYPE": 0, "CLASSIFICATION_TYPE": "U", "NORAD_CAT_ID": 35829, "ELEMENT_SET_NO": 999, "REV_AT_EPOCH": 87647, "BSTAR": 0.0046734359, "MEAN_MOTION_DOT": 0.00032229, "MEAN_MOTION_DDOT": 0}, "tle": {"line1": "1 35829U 93036ATB 25338.07092094  .00032229  00000+0  46734-2 0  9993", "line2": "2 35829  74.0233 115.7881 0007489 173.9555 186.1711 14.75878061876476"}}, "geometry": {"type": "Point", "coordinates": [-47.20530353706005, -50.94307181801396]}}, {"type": "Feature", "properties": {"norad_id": 35830, "name": "COSMOS 2251 DEB", "group": "cosmos-2251-debris", "lat": 11.925602866796082, "lon": -77.69137085536536, "alt_km": 861.9943174776054, "timestamp": "2025-12-05T22:40:48.946934+00:00", "meta": {"OBJECT_NAME": "COSMOS 2251 DEB", "OBJECT_ID": "1993-036ATC", "EPOCH": "2025-12-04T04:28:02.478720", "MEAN_MOTION": 14.23905065, "ECCENTRICITY": 0.0123073, "INCLINATION": 73.8631, "RA_OF_ASC_NODE": 282.002, "ARG_OF_PERICENTER": 251.8911, "MEAN_ANOMALY": 106.8798, "EPHEMERIS_TYPE": 0, "CLASSIFICATION_TYPE": "U", "NORAD_CAT_ID": 35830, "ELEMENT_SET_NO": 999, "REV_AT_EPOCH": 61142, "BSTAR": 0.0019117, "MEAN_MOTION_DOT": 4.714e-05, "MEAN_MOTION_DDOT": 0}, "tle": {"line1": "1 35830U 93036ATC 25338.18613980  .00004714  00000+0  19117-2 0  9993", "line2": "2 35830  73.8631 282.0020 0123073 251.8911 106.8798 14.23905065611424"}}, "geometry": {"type": "Point", "coordinates": [-77.69137085536536, 11.925602866796082]}}, {"type": "Feature", "properties": {"norad_id": 35834, "name": "COSMOS 2251 DEB", "group": "cosmos-2251-debris", "lat": 57.76381284480118, "lon": 109.43455061600567, "alt_km": 764.4335836168748, "timestamp": "2025-12-05T22:40:48.946944+00:00", "meta": {"OBJECT_NAME": "COSMOS 2251 DEB", "OBJECT_ID": "1993-036ATG", "EPOCH": "2025-12-04T05:26:40.982208", "MEAN_MOTION": 14.12967901, "ECCENTRICITY": 0.0109106, "INCLINATION": 73.9304, "RA_OF_ASC_NODE": 319.69, "ARG_OF_PERICENTER": 121.8785, "MEAN_ANOMALY": 260.1307, "EPHEMERIS_TYPE": 0, "CLASSIFICATION_TYPE": "U", "NORAD_CAT_ID": 35834, "ELEMENT_SET_NO": 999, "REV_AT_EPOCH": 66143, "BSTAR": 0.00027149, "MEAN_MOTION_DOT": 5.11e-06, "MEAN_MOTION_DDOT": 0}, "tle": {"line1": "1 35834U 93036ATG 25338.22686322  .00000511  00000+0  27149-3 0  9998", "line2": "2 35834  73.9304 319.6900 0109106 121.8785 260.1307 14.12967901661437"}}, "geometry": {"type": "Point", "coordinates": [109.43455061600567, 57.76381284480118]}}, {"type": "Feature", "properties": {"norad_id": 35835, "name": "COSMOS 2251 DEB", "group": "cosmos-2251-debris", "lat": 65.17633298737373, "lon": -41.99382696433171, "alt_km": 736.4783238027121, "timestamp": "2025-12-05T22:40:48.946955+00:00", "meta": {"OBJECT_NAME": "COSMOS 2251 DEB", "OBJECT_ID": "1993-036ATH", "EPOCH": "2025-12-04T13:22:03.090144", "MEAN_MOTION": 13.82821616, "ECCENTRICITY": 0.0289764, "INCLINATION": 74.0638, "RA_OF_ASC_NODE": 282.192, "ARG_OF_PERICENTER": 65.7075, "MEAN_ANOMALY": 297.4021, "EPHEMERIS_TYPE": 0, "CLASSIFICATION_TYPE": "U", "NORAD_CAT_ID": 35835, "ELEMENT_SET_NO": 999, "REV_AT_EPOCH": 61586, "BSTAR": 0.0025294, "MEAN_MOTION_DOT": 3.783e-05, "MEAN_MOTION_DDOT": 0}, "tle": {"line1": "1 35835U 93036ATH 25338.55698021  .00003783  00000+0  25294-2 0  9996", "line2": "2 35835  74.0638 282.1920 0289764  65.7075 297.4021 13.82821616615863"}}, "geometry": {"type": "Point", "coordinates": [-41.99382696433171, 65.17633298737373]}}, {"type": "Feature", "properties": {"norad_id": 35836, "name": "COSMOS 2251 DEB", "group": "cosmos-2251-debris", "lat": -58.116299221767875, "lon": 158.72386595074784, "alt_km": 654.6612652515678, "timestamp": "2025-12-05T22:40:48.946965+00:00", "meta": {"OBJECT_NAME": "COSMOS 2251 DEB", "OBJECT_ID": "1993-036ATJ", "EPOCH": "2025-12-04T07:46:52.126752", "MEAN_MOTION": 14.70687432, "ECCENTRICITY": 0.0025001, "INCLINATION": 74.0321, "RA_OF_ASC_NODE": 189.2758, "ARG_OF_PERICENTER": 248.9498, "MEAN_ANOMALY": 110.9, "EPHEMERIS_TYPE": 0, "CLASSIFICATION_TYPE": "U", "NORAD_CAT_ID": 35836, "ELEMENT_SET_NO": 999, "REV_AT_EPOCH": 63396, "BSTAR": 0.0041741, "MEAN_MOTION_DOT": 0.00025617, "MEAN_MOTION_DDOT": 0}, "tle": {"line1": "1 35836U 93036ATJ 25338.32421443  .00025617  00000+0  41741-2 0  9999", "line2": "2 35836  74.0321 189.2758 0025001 248.9498 110.9000 14.70687432633966"}}, "geometry": {"type": "Point", "coordinates": [158.72386595074784, -58.116299221767875]}}, {"type": "Feature", "properties": {"norad_id": 35837, "name": "COSMOS 2251 DEB", "group": "cosmos-2251-debris", "lat": -31.790555303160748, "lon": -151.50282242217392, "alt_km": 1339.5620237392923, "timestamp": "2025-12-05T22:40:48.946975+00:00", "meta": {"OBJECT_NAME": "COSMOS 2251 DEB", "OBJECT_ID": "1993-036ATK", "EPOCH": "2025-12-04T01:24:29.156256", "MEAN_MOTION": 13.63390826, "ECCENTRICITY": 0.04220999, "INCLINATION": 73.7219, "RA_OF_ASC_NODE": 222.0677, "ARG_OF_PERICENTER": 144.2331, "MEAN_ANOMALY": 287.9035, "EPHEMERIS_TYPE": 0, "CLASSIFICATION_TYPE": "U", "NORAD_CAT_ID": 35837, "ELEMENT_SET_NO": 999, "REV_AT_EPOCH": 57858, "BSTAR": 0.0026672111, "MEAN_MOTION_DOT": 3.824e-05, "MEAN_MOTION_DDOT": 0}, "tle": {"line1": "1 35837U 93036ATK 25338.05867079  .00003824  00000+0  26672-2 0  9991", "line2": "2 35837  73.7219 222.0677 0422099 144.2331 287.9035 13.63390826578585"}}, "geometry": {"type": "Point", "coordinates": [-151.50282242217392, -31.790555303160748]}}, {"type": "Feature", "properties": {"norad_id": 35839, "name": "COSMOS 2251 DEB", "group": "cosmos-2251-debris", "lat": 59.26228463173705, "lon": 129.85538573919914, "alt_km": 422.08814245103986, "timestamp": "2025-12-05T22:40:48.946985+00:00", "meta": {"OBJECT_NAME": "COSMOS 2251 DEB", "OBJECT_ID": "1993-036ATM", "EPOCH": "2025-12-04T16:40:31.810368", "MEAN_MOTION": 15.46007318, "ECCENTRICITY": 0.00035851, "INCLINATION": 74.2143, "RA_OF_ASC_NODE": 340.9603, "ARG_OF_PERICENTER": 348.8276, "MEAN_ANOMALY": 11.2856, "EPHEMERIS_TYPE": 0, "CLASSIFICATION_TYPE": "U", "NORAD_CAT_ID": 35839, "ELEMENT_SET_NO": 999, "REV_AT_EPOCH": 88443, "BSTAR": 0.0054614209, "MEAN_MOTION_DOT": 0.00276351, "MEAN_MOTION_DDOT": 0}, "tle": {"line1": "1 35839U 93036ATM 25338.69481262  .00276351  00000+0  54614-2 0  9993", "line2": "2 35839  74.2143 340.9603 0003585 348.8276  11.2856 15.46007318884430"}}, "geometry": {"type": "Point", "coordinates": [129.85538573919914, 59.26228463173705]}}, {"type": "Feature", "properties": {"norad_id": 35840, "name": "COSMOS 2251 DEB", "group": "cosmos-2251-debris", "lat": 60.53544621867785, "lon": -39.90669849655773, "alt_km": 695.8690866233692, "timestamp": "2025-12-05T22:40:48.946996+00:00", "meta": {"OBJECT_NAME": "COSMOS 2251 DEB", "OBJECT_ID": "1993-036ATN", "EPOCH": "2025-12-03T06:41:48.528096", "MEAN_MOTION": 14.37668767, "ECCENTRICITY": 0.0116177, "INCLINATION": 73.9299, "RA_OF_ASC_NODE": 175.711, "ARG_OF_PERICENTER": 80.5155, "MEAN_ANOMALY": 280.9106, "EPHEMERIS_TYPE": 0, "CLASSIFICATION_TYPE": "U", "NORAD_CAT_ID": 35840, "ELEMENT_SET_NO": 999, "REV_AT_EPOCH": 85155, "BSTAR": 0.0020521, "MEAN_MOTION_DOT": 6.645e-05, "MEAN_MOTION_DDOT": 0}, "tle": {"line1": "1 35840U 93036ATN 25337.27903389  .00006645  00000+0  20521-2 0  9994", "line2": "2 35840  73.9299 175.7110 0116177  80.5155 280.9106 14.37668767851555"}}, "geometry": {"type": "Point", "coordinates": [-39.90669849655773, 60.53544621867785]}}, {"type": "Feature", "properties": {"norad_id": 35883, "name": "COSMOS 2251 DEB", "group": "cosmos-2251-debris", "lat": 18.88193619746942, "lon": -102.80989330595814, "alt_km": 687.5174147290254, "timestamp": "2025-12-05T22:40:48.947006+00:00", "meta": {"OBJECT_NAME": "COSMOS 2251 DEB", "OBJECT_ID": "1993-036ATW", "EPOCH": "2025-11-29T02:53:29.744160", "MEAN_MOTION": 14.50541303, "ECCENTRICITY": 0.00841977, "INCLINATION": 74.0237, "RA_OF_ASC_NODE": 95.6459, "ARG_OF_PERICENTER": 227.8885, "MEAN_ANOMALY": 309.997, "EPHEMERIS_TYPE": 0, "CLASSIFICATION_TYPE": "U", "NORAD_CAT_ID": 35883, "ELEMENT_SET_NO": 999, "REV_AT_EPOCH": 62188, "BSTAR": 0.00041574036, "MEAN_MOTION_DOT": 1.674e-05, "MEAN_MOTION_DDOT": 0}, "tle": {"line1": "1 35883U 93036ATW 25333.12048315  .00001674  00000+0  41574-3 0  9999", "line2": "2 35883  74.0237  95.6459 0084197 227.8885 309.9970 14.50541303621887"}}, "geometry": {"type": "Point", "coordinates": [-102.80989330595814, 18.88193619746942]}}, {"type": "Feature", "properties": {"norad_id": 35884, "name": "COSMOS 2251 DEB", "group": "cosmos-2251-debris", "lat": 45.89184676922482, "lon": 151.0871978296633, "alt_km": 723.908215286342, "timestamp": "2025-12-05T22:40:48.947016+00:00", "meta": {"OBJECT_NAME": "COSMOS 2251 DEB", "OBJECT_ID": "1993-036ATX", "EPOCH": "2025-12-01T08:35:40.210656", "MEAN_MOTION": 14.25555603, "ECCENTRICITY": 0.01094526, "INCLINATION": 73.9914, "RA_OF_ASC_NODE": 356.6148, "ARG_OF_PERICENTER": 146.5236, "MEAN_ANOMALY": 214.2894, "EPHEMERIS_TYPE": 0, "CLASSIFICATION_TYPE": "U", "NORAD_CAT_ID": 35884, "ELEMENT_SET_NO": 999, "REV_AT_EPOCH": 22195, "BSTAR": 0.0012758145, "MEAN_MOTION_DOT": 3.19e-05, "MEAN_MOTION_DDOT": 0}, "tle": {"line1": "1 35884U 93036ATX 25335.35810429  .00003190  00000+0  12758-2 0  9996", "line2": "2 35884  73.9914 356.6148 0109452 146.5236 214.2894 14.25555603221959"}}, "geometry": {"type": "Point", "coordinates": [151.0871978296633, 45.89184676922482]}}]}